LEMUR-2-FINNIAN         
1 66782U 25276DX  26203.42326079  .00005058  00000+0  40396-3 0  9999
2 66782  97.5347 273.3225 0006962 331.5441  28.5402 15.00672909 25281
LEMUR-2-STARLIGHT       
1 66783U 25276DY  26203.14299221  .00006752  00000+0  55454-3 0  9990
2 66783  97.5239 272.5886 0014512  26.2388 333.9568 14.99416887 35436
LEMUR-2-TARTIFLETTE     
1 66784U 25276DZ  26203.47515016  .00006532  00000+0  53698-3 0  9994
2 66784  97.5238 272.9172 0013778  34.0314 326.1791 14.99401650 35486
LEMUR-2-VUKASIN         
1 66785U 25276EA  26203.17297098  .00005497  00000+0  43969-3 0  9998
2 66785  97.5198 272.9945 0001957  28.6074 331.5258 15.00590595 35396
LEMUR-2-HOTSPUR-TOM     
1 66786U 25276EB  26203.47004627  .00006231  00000+0  51386-3 0  9995
2 66786  97.5215 272.8837 0013506  26.0227 334.1672 14.99296959 35417
LEMUR-2-MYRA            
1 66787U 25276EC  26203.47135700  .00005934  00000+0  47196-3 0  9996
2 66787  97.5226 273.2042 0018473  31.8904 328.3435 15.00646858 35509
LEMUR-2 FIKRETDENGIZ    
1 67363U 26004A   26202.95713863  .00004126  00000+0  44896-3 0  9997
2 67363  97.8036 200.9883 0009701  36.3875 323.7999 14.88552806 28457
TWILIGHT-1 OBJECT B     
1 67364U 26004B   26201.98878606  .00001110  00000+0  12740-3 0  9990
2 67364  97.8078 200.0319 0009314  28.9865 331.1867 14.87805943 28319
LEMUR-2-MARIO-SOUSA     
1 67365U 26004C   26203.00325051  .00004770  00000+0  51530-3 0  9992
2 67365  97.8006 201.0285 0009332  37.9067 322.2806 14.88766843 28475
LEMUR-2-SONNENBLUME     
1 67367U 26004E   26203.47795023  .00002131  00000+0  23522-3 0  9994
2 67367  97.8005 201.4656 0008942  37.3147 322.8689 14.88479437 28544
LEMUR-2-WOBLER          
1 67368U 26004F   26203.46602281  .00003760  00000+0  40787-3 0  9998
2 67368  97.8058 201.6124 0008892  29.1294 331.0417 14.88733930 28543
LEMUR-2-GRAM-E-SUE      
1 67370U 26004H   26203.45871017  .00001907  00000+0  21045-3 0  9992
2 67370  97.7993 201.4636 0008162  40.9903 319.1926 14.88613346 28547
LEMUR-2-KATIE           
1 67387U 26004AA  26203.00469236  .00004910  00000+0  51103-3 0  9992
2 67387  97.8052 201.5905 0002856  16.6721 343.4590 14.90291770 28491
LEMUR-2-HCS-BAZUS       
1 67388U 26004AB  26203.00300739  .00004171  00000+0  43493-3 0  9997
2 67388  97.8040 201.5664 0002352  18.3461 341.7841 14.90297048 28496
